<?xml version="1.0" encoding="UTF-8"?>
<ndm xmlns:xsi="http://www.w3.org/2001/XMLSchema-instance" xsi:noNamespaceSchemaLocation="https://sanaregistry.org/r/ndmxml_unqualified/ndmxml-2.0.0-master-2.0.xsd">
<omm id="CCSDS_OMM_VERS" version="2.0">
<header><CREATION_DATE/><ORIGINATOR/></header><body><segment><metadata><OBJECT_NAME>ONEWEB-0202</OBJECT_NAME><OBJECT_ID>2021-031Q</OBJECT_ID><CENTER_NAME>EARTH</CENTER_NAME><REF_FRAME>TEME</REF_FRAME><TIME_SYSTEM>UTC</TIME_SYSTEM><MEAN_ELEMENT_THEORY>SGP4</MEAN_ELEMENT_THEORY></metadata><data><meanElements><EPOCH>2023-10-09T21:26:01.832928</EPOCH><MEAN_MOTION>13.14505073</MEAN_MOTION><ECCENTRICITY>.0001408</ECCENTRICITY><INCLINATION>87.8954</INCLINATION><RA_OF_ASC_NODE>125.0630</RA_OF_ASC_NODE><ARG_OF_PERICENTER>40.1120</ARG_OF_PERICENTER><MEAN_ANOMALY>320.0113</MEAN_ANOMALY></meanElements><tleParameters><EPHEMERIS_TYPE>0</EPHEMERIS_TYPE><CLASSIFICATION_TYPE>U</CLASSIFICATION_TYPE><NORAD_CAT_ID>48224</NORAD_CAT_ID><ELEMENT_SET_NO>999</ELEMENT_SET_NO><REV_AT_EPOCH>11944</REV_AT_EPOCH><BSTAR>-.39987E-3</BSTAR><MEAN_MOTION_DOT>-.135E-5</MEAN_MOTION_DOT><MEAN_MOTION_DDOT>0</MEAN_MOTION_DDOT></tleParameters></data></segment></body></omm>
<omm id="CCSDS_OMM_VERS" version="2.0">
<header><CREATION_DATE/><ORIGINATOR/></header><body><segment><metadata><OBJECT_NAME>ONEWEB-0204</OBJECT_NAME><OBJECT_ID>2021-031R</OBJECT_ID><CENTER_NAME>EARTH</CENTER_NAME><REF_FRAME>TEME</REF_FRAME><TIME_SYSTEM>UTC</TIME_SYSTEM><MEAN_ELEMENT_THEORY>SGP4</MEAN_ELEMENT_THEORY></metadata><data><meanElements><EPOCH>2023-10-09T22:14:58.804800</EPOCH><MEAN_MOTION>13.14501554</MEAN_MOTION><ECCENTRICITY>.0001914</ECCENTRICITY><INCLINATION>87.8952</INCLINATION><RA_OF_ASC_NODE>125.0690</RA_OF_ASC_NODE><ARG_OF_PERICENTER>97.7945</ARG_OF_PERICENTER><MEAN_ANOMALY>262.3402</MEAN_ANOMALY></meanElements><tleParameters><EPHEMERIS_TYPE>0</EPHEMERIS_TYPE><CLASSIFICATION_TYPE>U</CLASSIFICATION_TYPE><NORAD_CAT_ID>48225</NORAD_CAT_ID><ELEMENT_SET_NO>999</ELEMENT_SET_NO><REV_AT_EPOCH>11934</REV_AT_EPOCH><BSTAR>.16933E-3</BSTAR><MEAN_MOTION_DOT>.76E-6</MEAN_MOTION_DOT><MEAN_MOTION_DDOT>0</MEAN_MOTION_DDOT></tleParameters></data></segment></body></omm>
<omm id="CCSDS_OMM_VERS" version="2.0">
<header><CREATION_DATE/><ORIGINATOR/></header><body><segment><metadata><OBJECT_NAME>ONEWEB-0205</OBJECT_NAME><OBJECT_ID>2021-031S</OBJECT_ID><CENTER_NAME>EARTH</CENTER_NAME><REF_FRAME>TEME</REF_FRAME><TIME_SYSTEM>UTC</TIME_SYSTEM><MEAN_ELEMENT_THEORY>SGP4</MEAN_ELEMENT_THEORY></metadata><data><meanElements><EPOCH>2023-10-09T14:22:49.202976</EPOCH><MEAN_MOTION>13.14505540</MEAN_MOTION><ECCENTRICITY>.0001421</ECCENTRICITY><INCLINATION>87.8954</INCLINATION><RA_OF_ASC_NODE>125.1034</RA_OF_ASC_NODE><ARG_OF_PERICENTER>78.0933</ARG_OF_PERICENTER><MEAN_ANOMALY>282.0356</MEAN_ANOMALY></meanElements><tleParameters><EPHEMERIS_TYPE>0</EPHEMERIS_TYPE><CLASSIFICATION_TYPE>U</CLASSIFICATION_TYPE><NORAD_CAT_ID>48226</NORAD_CAT_ID><ELEMENT_SET_NO>999</ELEMENT_SET_NO><REV_AT_EPOCH>11931</REV_AT_EPOCH><BSTAR>-.20387E-3</BSTAR><MEAN_MOTION_DOT>-.63E-6</MEAN_MOTION_DOT><MEAN_MOTION_DDOT>0</MEAN_MOTION_DDOT></tleParameters></data></segment></body></omm>
<omm id="CCSDS_OMM_VERS" version="2.0">
<header><CREATION_DATE/><ORIGINATOR/></header><body><segment><metadata><OBJECT_NAME>ONEWEB-0206</OBJECT_NAME><OBJECT_ID>2021-031T</OBJECT_ID><CENTER_NAME>EARTH</CENTER_NAME><REF_FRAME>TEME</REF_FRAME><TIME_SYSTEM>UTC</TIME_SYSTEM><MEAN_ELEMENT_THEORY>SGP4</MEAN_ELEMENT_THEORY></metadata><data><meanElements><EPOCH>2023-10-09T15:32:51.209952</EPOCH><MEAN_MOTION>13.14504592</MEAN_MOTION><ECCENTRICITY>.0001382</ECCENTRICITY><INCLINATION>87.8964</INCLINATION><RA_OF_ASC_NODE>125.0800</RA_OF_ASC_NODE><ARG_OF_PERICENTER>88.9293</ARG_OF_PERICENTER><MEAN_ANOMALY>271.1995</MEAN_ANOMALY></meanElements><tleParameters><EPHEMERIS_TYPE>0</EPHEMERIS_TYPE><CLASSIFICATION_TYPE>U</CLASSIFICATION_TYPE><NORAD_CAT_ID>48227</NORAD_CAT_ID><ELEMENT_SET_NO>999</ELEMENT_SET_NO><REV_AT_EPOCH>11927</REV_AT_EPOCH><BSTAR>.2566E-3</BSTAR><MEAN_MOTION_DOT>.108E-5</MEAN_MOTION_DOT><MEAN_MOTION_DDOT>0</MEAN_MOTION_DDOT></tleParameters></data></segment></body></omm>
<omm id="CCSDS_OMM_VERS" version="2.0">
<header><CREATION_DATE/><ORIGINATOR/></header><body><segment><metadata><OBJECT_NAME>ONEWEB-0182</OBJECT_NAME><OBJECT_ID>2021-031U</OBJECT_ID><CENTER_NAME>EARTH</CENTER_NAME><REF_FRAME>TEME</REF_FRAME><TIME_SYSTEM>UTC</TIME_SYSTEM><MEAN_ELEMENT_THEORY>SGP4</MEAN_ELEMENT_THEORY></metadata><data><meanElements><EPOCH>2023-10-09T15:23:43.514304</EPOCH><MEAN_MOTION>13.14501412</MEAN_MOTION><ECCENTRICITY>.0001453</ECCENTRICITY><INCLINATION>87.8960</INCLINATION><RA_OF_ASC_NODE>125.1040</RA_OF_ASC_NODE><ARG_OF_PERICENTER>87.1569</ARG_OF_PERICENTER><MEAN_ANOMALY>272.9727</MEAN_ANOMALY></meanElements><tleParameters><EPHEMERIS_TYPE>0</EPHEMERIS_TYPE><CLASSIFICATION_TYPE>U</CLASSIFICATION_TYPE><NORAD_CAT_ID>48228</NORAD_CAT_ID><ELEMENT_SET_NO>999</ELEMENT_SET_NO><REV_AT_EPOCH>11948</REV_AT_EPOCH><BSTAR>.58746E-3</BSTAR><MEAN_MOTION_DOT>.231E-5</MEAN_MOTION_DOT><MEAN_MOTION_DDOT>0</MEAN_MOTION_DDOT></tleParameters></data></segment></body></omm>
<omm id="CCSDS_OMM_VERS" version="2.0">
<header><CREATION_DATE/><ORIGINATOR/></header><body><segment><metadata><OBJECT_NAME>ONEWEB-0186</OBJECT_NAME><OBJECT_ID>2021-031V</OBJECT_ID><CENTER_NAME>EARTH</CENTER_NAME><REF_FRAME>TEME</REF_FRAME><TIME_SYSTEM>UTC</TIME_SYSTEM><MEAN_ELEMENT_THEORY>SGP4</MEAN_ELEMENT_THEORY></metadata><data><meanElements><EPOCH>2023-10-10T02:39:39.936096</EPOCH><MEAN_MOTION>13.14502842</MEAN_MOTION><ECCENTRICITY>.0001498</ECCENTRICITY><INCLINATION>87.8955</INCLINATION><RA_OF_ASC_NODE>124.9755</RA_OF_ASC_NODE><ARG_OF_PERICENTER>79.8612</ARG_OF_PERICENTER><MEAN_ANOMALY>280.2687</MEAN_ANOMALY></meanElements><tleParameters><EPHEMERIS_TYPE>0</EPHEMERIS_TYPE><CLASSIFICATION_TYPE>U</CLASSIFICATION_TYPE><NORAD_CAT_ID>48229</NORAD_CAT_ID><ELEMENT_SET_NO>999</ELEMENT_SET_NO><REV_AT_EPOCH>11950</REV_AT_EPOCH><BSTAR>.25147E-3</BSTAR><MEAN_MOTION_DOT>.106E-5</MEAN_MOTION_DOT><MEAN_MOTION_DDOT>0</MEAN_MOTION_DDOT></tleParameters></data></segment></body></omm>
<omm id="CCSDS_OMM_VERS" version="2.0">
<header><CREATION_DATE/><ORIGINATOR/></header><body><segment><metadata><OBJECT_NAME>ONEWEB-0181</OBJECT_NAME><OBJECT_ID>2021-031W</OBJECT_ID><CENTER_NAME>EARTH</CENTER_NAME><REF_FRAME>TEME</REF_FRAME><TIME_SYSTEM>UTC</TIME_SYSTEM><MEAN_ELEMENT_THEORY>SGP4</MEAN_ELEMENT_THEORY></metadata><data><meanElements><EPOCH>2023-10-09T22:26:57.357312</EPOCH><MEAN_MOTION>13.14502048</MEAN_MOTION><ECCENTRICITY>.0001595</ECCENTRICITY><INCLINATION>87.8956</INCLINATION><RA_OF_ASC_NODE>125.0828</RA_OF_ASC_NODE><ARG_OF_PERICENTER>76.6047</ARG_OF_PERICENTER><MEAN_ANOMALY>283.5261</MEAN_ANOMALY></meanElements><tleParameters><EPHEMERIS_TYPE>0</EPHEMERIS_TYPE><CLASSIFICATION_TYPE>U</CLASSIFICATION_TYPE><NORAD_CAT_ID>48230</NORAD_CAT_ID><ELEMENT_SET_NO>999</ELEMENT_SET_NO><REV_AT_EPOCH>11932</REV_AT_EPOCH><BSTAR>.41814E-3</BSTAR><MEAN_MOTION_DOT>.168E-5</MEAN_MOTION_DOT><MEAN_MOTION_DDOT>0</MEAN_MOTION_DDOT></tleParameters></data></segment></body></omm>
<omm id="CCSDS_OMM_VERS" version="2.0">
<header><CREATION_DATE/><ORIGINATOR/></header><body><segment><metadata><OBJECT_NAME>ONEWEB-0188</OBJECT_NAME><OBJECT_ID>2021-031X</OBJECT_ID><CENTER_NAME>EARTH</CENTER_NAME><REF_FRAME>TEME</REF_FRAME><TIME_SYSTEM>UTC</TIME_SYSTEM><MEAN_ELEMENT_THEORY>SGP4</MEAN_ELEMENT_THEORY></metadata><data><meanElements><EPOCH>2023-10-10T01:14:24.875520</EPOCH><MEAN_MOTION>13.14502769</MEAN_MOTION><ECCENTRICITY>.0001511</ECCENTRICITY><INCLINATION>87.8957</INCLINATION><RA_OF_ASC_NODE>125.0584</RA_OF_ASC_NODE><ARG_OF_PERICENTER>85.0151</ARG_OF_PERICENTER><MEAN_ANOMALY>275.1151</MEAN_ANOMALY></meanElements><tleParameters><EPHEMERIS_TYPE>0</EPHEMERIS_TYPE><CLASSIFICATION_TYPE>U</CLASSIFICATION_TYPE><NORAD_CAT_ID>48231</NORAD_CAT_ID><ELEMENT_SET_NO>999</ELEMENT_SET_NO><REV_AT_EPOCH>11924</REV_AT_EPOCH><BSTAR>-.35721E-3</BSTAR><MEAN_MOTION_DOT>-.12E-5</MEAN_MOTION_DOT><MEAN_MOTION_DDOT>0</MEAN_MOTION_DDOT></tleParameters></data></segment></body></omm>

</ndm>
