ONEWEB-0202             
1 48224U 21031Q   23282.89307677 -.00000135  00000+0 -39987-3 0  9990
2 48224  87.8954 125.0630 0001408  40.1120 320.0113 13.14505073119449
ONEWEB-0204             
1 48225U 21031R   23282.92706950  .00000076  00000+0  16933-3 0  9990
2 48225  87.8952 125.0690 0001914  97.7945 262.3402 13.14501554119347
ONEWEB-0205             
1 48226U 21031S   23282.59918059 -.00000063  00000+0 -20387-3 0  9995
2 48226  87.8954 125.1034 0001421  78.0933 282.0356 13.14505540119318
ONEWEB-0206             
1 48227U 21031T   23282.64781493  .00000108  00000+0  25660-3 0  9999
2 48227  87.8964 125.0800 0001382  88.9293 271.1995 13.14504592119274
ONEWEB-0182             
1 48228U 21031U   23282.64147586  .00000231  00000+0  58746-3 0  9997
2 48228  87.8960 125.1040 0001453  87.1569 272.9727 13.14501412119487
ONEWEB-0186             
1 48229U 21031V   23283.11087889  .00000106  00000+0  25147-3 0  9990
2 48229  87.8955 124.9755 0001498  79.8612 280.2687 13.14502842119506
ONEWEB-0181             
1 48230U 21031W   23282.93538608  .00000168  00000+0  41814-3 0  9998
2 48230  87.8956 125.0828 0001595  76.6047 283.5261 13.14502048119329
ONEWEB-0188             
1 48231U 21031X   23283.05167680 -.00000120  00000+0 -35721-3 0  9991
2 48231  87.8957 125.0584 0001511  85.0151 275.1151 13.14502769119244
